TIANMU-1 08             
1 57400U 23101B   26066.00237819  .00000346  00000+0  14775-4 0  9993
2 57400  97.2717 118.7901 0006380 134.2174 225.9592 15.29204229146020
STARLINK-31444          
1 59236U 24049F   26068.02845837 -.00000530  00000+0 -97243-5 0  9992
2 59236  43.0029  77.7673 0001194 254.9284 105.1436 15.27576671113070
