[{"OBJECT_NAME":"TIANMU-1 08","OBJECT_ID":"2023-101B","EPOCH":"2026-03-07T00:03:25.475616","MEAN_MOTION":15.29204229,"ECCENTRICITY":0.00063808,"INCLINATION":97.2717,"RA_OF_ASC_NODE":118.7901,"ARG_OF_PERICENTER":134.2174,"MEAN_ANOMALY":225.9592,"EPHEMERIS_TYPE":0,"CLASSIFICATION_TYPE":"U","NORAD_CAT_ID":57400,"ELEMENT_SET_NO":999,"REV_AT_EPOCH":14602,"BSTAR":1.4774513e-5,"MEAN_MOTION_DOT":3.46e-6,"MEAN_MOTION_DDOT":0},{"OBJECT_NAME":"STARLINK-31444","OBJECT_ID":"2024-049F","EPOCH":"2026-03-09T00:40:58.803168","MEAN_MOTION":15.27576671,"ECCENTRICITY":0.00011949,"INCLINATION":43.0029,"RA_OF_ASC_NODE":77.7673,"ARG_OF_PERICENTER":254.9284,"MEAN_ANOMALY":105.1436,"EPHEMERIS_TYPE":0,"CLASSIFICATION_TYPE":"U","NORAD_CAT_ID":59236,"ELEMENT_SET_NO":999,"REV_AT_EPOCH":11307,"BSTAR":-9.724308e-6,"MEAN_MOTION_DOT":-5.3e-6,"MEAN_MOTION_DDOT":0}]
